{
  "last_updated": "2026-01-01T06:00:02.790813",
  "satellites": {
    "98592": {
      "name": "DUTHSat-2",
      "norad_id": "98592",
      "tle": "1 64530U 25135C   25365.83658177  .00020354  00000-0  89024-3 0  9990\n2 64530  97.4494 117.5807 0006033  60.5347 299.6490 15.22081964 29438",
      "epoch": "2025-12-31T20:04:40.664928",
      "fetched_at": "2026-01-01T06:00:02.909218",
      "source": "satnogs"
    },
    "98530": {
      "name": "LAMARR",
      "norad_id": "98530",
      "tle": "1 66683U 25276T   25365.87174316  .00020694  00000-0  10441-2 0  9992\n2 66683  97.4452  77.2952 0005207 203.8977 156.2015 15.17136846  5023",
      "epoch": "2025-12-31T20:55:18.609024",
      "fetched_at": "2026-01-01T06:00:02.959481",
      "source": "satnogs"
    },
    "98529": {
      "name": "DIRAC",
      "norad_id": "98529",
      "tle": "1 66681U 25276R   25365.86536879  .00026943  00000-0  13300-2 0  9995\n2 66681  97.4335  77.2561 0004943 237.7714 122.3041 15.17850181  5026",
      "epoch": "2025-12-31T20:46:07.863456",
      "fetched_at": "2026-01-01T06:00:03.006091",
      "source": "satnogs"
    },
    "98518": {
      "name": "MICE-1",
      "norad_id": "98518",
      "tle": "1 66684U 25276U   25365.86646489  .00006775  00000-0  34087-3 0  9994\n2 66684  97.4474  77.3124 0005002 202.7045 157.3968 15.17531557  5024",
      "epoch": "2025-12-31T20:47:42.566496",
      "fetched_at": "2026-01-01T06:00:03.056464",
      "source": "satnogs"
    }
  },
  "fetch_log": [
    {
      "norad_id": "98592",
      "name": "DUTHSat-2",
      "status": "success",
      "source": "satnogs",
      "timestamp": "2026-01-01T06:00:02.909222"
    },
    {
      "norad_id": "98530",
      "name": "LAMARR",
      "status": "success",
      "source": "satnogs",
      "timestamp": "2026-01-01T06:00:02.959485"
    },
    {
      "norad_id": "98529",
      "name": "DIRAC",
      "status": "success",
      "source": "satnogs",
      "timestamp": "2026-01-01T06:00:03.006094"
    },
    {
      "norad_id": "98518",
      "name": "MICE-1",
      "status": "success",
      "source": "satnogs",
      "timestamp": "2026-01-01T06:00:03.056468"
    }
  ]
}